NORAD_CAT_ID,OBJECT_NAME,OBJECT_TYPE,EPOCH,MEAN_MOTION,ECCENTRICITY,INCLINATION,RA_OF_ASC_NODE,ARG_OF_PERICENTER,MEAN_ANOMALY,BSTAR,MEAN_MOTION_DOT,MEAN_MOTION_DDOT,TLE_LINE0,TLE_LINE1,TLE_LINE2,SEMIMAJOR_AXIS,PERIOD,APOGEE,PERIGEE,DECAYED
53178.0,STARLINK-4280,PAYLOAD,2024-07-02 21:48:44,15.0884132,0.0001142,53.2189,43.9799,106.3296,253.7822,-0.0001315,-2.38e-05,0.0,0 STARLINK-4280,1 53178U 22083AY  24184.90885148 -.00002380  00000-0 -13150-3 0  9999,2 53178  53.2189  43.9799 0001142 106.3296 253.7822 15.08841320108538,6917.876,95.437,540.531,538.951,0.0
53178.0,STARLINK-4280,PAYLOAD,2024-07-03 07:21:02,15.08854368,8.82e-05,53.2181,42.1964,103.6588,256.4502,-4.3419e-05,-9.79e-06,0.0,0 STARLINK-4280,1 53178U 22083AY  24185.30627776 -.00000979  00000-0 -43419-4 0  9999,2 53178  53.2181  42.1964 0000882 103.6588 256.4502 15.08854368109227,6917.836,95.437,540.312,539.091,0.0
53178.0,STARLINK-4280,PAYLOAD,2024-07-03 20:04:08,15.08835112,0.0001295,53.2178,39.8186,92.4365,267.6776,2.0928e-05,4.5e-07,0.0,0 STARLINK-4280,1 53178U 22083AY  24185.83620990  .00000045  00000-0  20928-4 0  9990,2 53178  53.2178  39.8186 0001295  92.4365 267.6776 15.08835112109301,6917.895,95.438,540.656,538.864,0.0
53178.0,STARLINK-4280,PAYLOAD,2024-07-03 21:39:31,15.08838514,0.0001109,53.2174,39.5205,88.28,271.8319,2.7977e-05,1.57e-06,0.0,0 STARLINK-4280,1 53178U 22083AY  24185.90244779  .00000157  00000-0  27977-4 0  9990,2 53178  53.2174  39.5205 0001109  88.2800 271.8319 15.08838514108686,6917.885,95.438,540.517,538.983,0.0
53178.0,STARLINK-4280,PAYLOAD,2024-07-04 13:33:22,15.08840167,0.0001613,53.2174,36.549,88.6075,271.5102,0.00017444,2.489e-05,0.0,0 STARLINK-4280,1 53178U 22083AY  24186.56484151  .00002489  00000-0  17444-3 0  9990,2 53178  53.2174  36.5490 0001613  88.6075 271.5102 15.08840167109413,6917.88,95.438,540.861,538.629,0.0
53178.0,STARLINK-4280,PAYLOAD,2024-07-04 19:54:55,15.08831369,8.8e-05,53.2179,35.3573,86.0985,274.0108,1.3937e-05,-6.6e-07,0.0,0 STARLINK-4280,1 53178U 22083AY  24186.82981200 -.00000066  00000-0  13937-4 0  9990,2 53178  53.2179  35.3573 0000880  86.0985 274.0108 15.08831369109456,6917.907,95.438,540.381,539.163,0.0
53178.0,STARLINK-4280,PAYLOAD,2024-07-04 21:30:18,15.08833513,9.4e-05,53.218,35.0595,90.6844,269.4256,4.4705e-05,4.24e-06,0.0,0 STARLINK-4280,1 53178U 22083AY  24186.89605025  .00000424  00000-0  44705-4 0  9999,2 53178  53.2180  35.0595 0000940  90.6844 269.4256 15.08833513108837,6917.9,95.438,540.415,539.115,0.0
53178.0,STARLINK-4280,PAYLOAD,2024-07-04 23:05:41,15.08837657,0.0001,53.2184,34.762,89.785,270.3257,7.9486e-05,9.77e-06,0.0,0 STARLINK-4280,1 53178U 22083AY  24186.96228689  .00000977  00000-0  79486-4 0  9991,2 53178  53.2184  34.7620 0001000  89.7850 270.3257 15.08837657109476,6917.888,95.438,540.444,539.061,0.0
53178.0,STARLINK-4280,PAYLOAD,2024-07-05 07:02:36,15.08847287,9.62e-05,53.2184,33.2755,82.8304,277.2797,5.4386e-05,5.78e-06,0.0,0 STARLINK-4280,1 53178U 22083AY  24187.29348074  .00000578  00000-0  54386-4 0  9998,2 53178  53.2184  33.2755 0000962  82.8304 277.2797 15.08847287109524,6917.858,95.437,540.389,539.058,0.0
53178.0,STARLINK-4280,PAYLOAD,2024-07-05 19:45:42,15.08842477,9.19e-05,53.218,30.8944,95.6966,264.4131,1.9201e-05,1.8e-07,0.0,0 STARLINK-4280,1 53178U 22083AY  24187.82340573  .00000018  00000-0  19201-4 0  9999,2 53178  53.2180  30.8944 0000919  95.6966 264.4131 15.08842477109606,6917.873,95.437,540.374,539.102,0.0
53178.0,STARLINK-4280,PAYLOAD,2024-07-05 21:21:05,15.08845517,6.9e-05,53.2175,30.6006,75.1895,284.9173,-1.8084e-05,-5.75e-06,0.0,0 STARLINK-4280,1 53178U 22083AY  24187.88964497 -.00000575  00000-0 -18084-4 0  9990,2 53178  53.2175  30.6006 0000690  75.1895 284.9173 15.08845517108988,6917.864,95.437,540.206,539.251,0.0
53178.0,STARLINK-4280,PAYLOAD,2024-07-06 13:14:57,15.08825117,0.0001216,53.2191,27.6261,81.1356,278.9774,1.6433e-05,-2.6e-07,0.0,0 STARLINK-4280,1 53178U 22083AY  24188.55205551 -.00000026  00000-0  16433-4 0  9990,2 53178  53.2191  27.6261 0001216  81.1356 278.9774 15.08825117109715,6917.926,95.438,540.632,538.95,0.0
53178.0,STARLINK-4280,PAYLOAD,2024-07-06 19:36:29,15.08833424,0.000117,53.2205,26.4352,106.9057,253.2064,-3.2195e-06,-3.39e-06,0.0,0 STARLINK-4280,1 53178U 22083AY  24188.81701227 -.00000339  00000-0 -32195-5 0  9992,2 53178  53.2205  26.4352 0001170 106.9057 253.2064 15.08833424109754,6917.9,95.438,540.575,538.956,0.0
53178.0,STARLINK-4280,PAYLOAD,2024-07-07 06:44:11,15.08840294,0.0001105,53.2191,24.3538,97.9873,262.1244,4.3222e-05,4e-06,0.0,0 STARLINK-4280,1 53178U 22083AY  24189.28068713  .00000400  00000-0  43222-4 0  9999,2 53178  53.2191  24.3538 0001105  97.9873 262.1244 15.08840294109824,6917.879,95.438,540.509,538.98,0.0
53178.0,STARLINK-4280,PAYLOAD,2024-07-07 19:27:16,15.08843237,0.00011,53.2192,21.9755,92.9269,267.1849,2.0183e-05,3.3e-07,0.0,0 STARLINK-4280,1 53178U 22083AY  24189.81060744  .00000033  00000-0  20183-4 0  9997,2 53178  53.2192  21.9755 0001100  92.9269 267.1849 15.08843237109273,6917.87,95.437,540.496,538.975,0.0
53178.0,STARLINK-4280,PAYLOAD,2024-07-08 19:18:03,15.08834087,0.000111,53.2193,17.5172,79.7217,280.39,0.00014587,2.034e-05,0.0,0 STARLINK-4280,1 53178U 22083AY  24190.80421058  .00002034  00000-0  14587-3 0  9990,2 53178  53.2193  17.5172 0001110  79.7217 280.3900 15.08834087110051,6917.898,95.438,540.531,538.996,0.0
53178.0,STARLINK-4280,PAYLOAD,2024-07-09 12:47:18,15.08834905,0.0001081,53.2188,14.2463,81.0825,279.029,4.0728e-05,3.6e-06,0.0,0 STARLINK-4280,1 53178U 22083AY  24191.53285430  .00000360  00000-0  40728-4 0  9990,2 53178  53.2188  14.2463 0001081  81.0825 279.0290 15.08834905109537,6917.896,95.438,540.509,539.013,0.0
53178.0,STARLINK-4280,PAYLOAD,2024-07-09 19:08:51,15.08834233,0.0001016,53.2182,13.0535,72.9652,287.1452,-2.9207e-05,-7.52e-06,0.0,0 STARLINK-4280,1 53178U 22083AY  24191.79781716 -.00000752  00000-0 -29207-4 0  9992,2 53178  53.2182  13.0535 0001016  72.9652 287.1452 15.08834233109571,6917.898,95.438,540.466,539.06,0.0
53178.0,STARLINK-4280,PAYLOAD,2024-07-10 04:41:09,15.08841587,0.0001027,53.2188,11.2704,81.0456,279.0652,3.3865e-05,2.51e-06,0.0,0 STARLINK-4280,1 53178U 22083AY  24192.19525105  .00000251  00000-0  33865-4 0  9992,2 53178  53.2188  11.2704 0001027  81.0456 279.0652 15.08841587110260,6917.876,95.437,540.451,539.03,0.0
53178.0,STARLINK-4280,PAYLOAD,2024-07-10 12:38:05,15.08833359,0.0001125,53.22,9.7882,93.6046,266.5075,2.456e-05,1.03e-06,0.0,0 STARLINK-4280,1 53178U 22083AY  24192.52645798  .00000103  00000-0  24560-4 0  9998,2 53178  53.2200   9.7882 0001125  93.6046 266.5075 15.08833359110311,6917.901,95.438,540.544,538.987,0.0
53178.0,STARLINK-4280,PAYLOAD,2024-07-12 04:22:43,15.08848977,9.6e-05,53.2179,2.3494,97.8702,262.2399,0.00017268,2.462e-05,0.0,0 STARLINK-4280,1 53178U 22083AY  24194.18244700  .00002462  00000-0  17268-3 0  9996,2 53178  53.2179   2.3494 0000960  97.8702 262.2399 15.08848977110566,6917.853,95.437,540.382,539.054,0.0
53178.0,STARLINK-4280,PAYLOAD,2024-07-12 18:41:12,15.08840648,0.0001186,53.2191,359.6706,87.9825,272.1303,7.0687e-05,8.37e-06,0.0,0 STARLINK-4280,1 53178U 22083AY  24194.77861656  .00000837  00000-0  70687-4 0  9995,2 53178  53.2191 359.6706 0001186  87.9825 272.1303 15.08840648110653,6917.878,95.438,540.564,538.923,0.0
53178.0,STARLINK-4280,PAYLOAD,2024-07-13 04:13:30,15.0885434,0.0001168,53.2196,357.8828,85.5969,274.5157,0.00015839,2.235e-05,0.0,0 STARLINK-4280,1 53178U 22083AY  24195.17604416  .00002235  00000-0  15839-3 0  9990,2 53178  53.2196 357.8828 0001168  85.5969 274.5157 15.08854340110710,6917.837,95.437,540.51,538.894,0.0
53178.0,STARLINK-4280,PAYLOAD,2024-07-13 10:35:04,15.08829645,9.6e-05,53.2182,356.6975,81.66,278.4501,-7.8029e-05,-1.529e-05,0.0,0 STARLINK-4280,1 53178U 22083AY  24195.44102555 -.00001529  00000-0 -78029-4 0  9995,2 53178  53.2182 356.6975 0000960  81.6600 278.4501 15.08829645110753,6917.912,95.438,540.441,539.113,0.0
53178.0,STARLINK-4280,PAYLOAD,2024-07-13 20:07:22,15.0884272,9.2e-05,53.2165,354.9152,94.1031,266.0067,5.3974e-05,5.71e-06,0.0,0 STARLINK-4280,1 53178U 22083AY  24195.83845561  .00000571  00000-0  53974-4 0  9995,2 53178  53.2165 354.9152 0000920  94.1031 266.0067 15.08842720110811,6917.872,95.437,540.374,539.101,0.0
53178.0,STARLINK-4280,PAYLOAD,2024-07-14 04:04:17,15.08849267,0.0001119,53.2167,353.4293,75.4087,284.7029,0.00010886,1.446e-05,0.0,0 STARLINK-4280,1 53178U 22083AY  24196.16964932  .00001446  00000-0  10886-3 0  9992,2 53178  53.2167 353.4293 0001119  75.4087 284.7029 15.08849267110860,6917.852,95.437,540.491,538.943,0.0
53178.0,STARLINK-4280,PAYLOAD,2024-07-14 10:25:50,15.08842035,0.0001817,53.2189,352.2339,94.3077,265.8123,0.00018508,2.659e-05,0.0,0 STARLINK-4280,1 53178U 22083AY  24196.43461654  .00002659  00000-0  18508-3 0  9991,2 53178  53.2189 352.2339 0001817  94.3077 265.8123 15.08842035110902,6917.874,95.437,540.996,538.482,0.0
53178.0,STARLINK-4280,PAYLOAD,2024-07-14 16:47:23,15.08841551,0.0001318,53.2184,351.0493,90.8549,269.2594,0.00016187,2.289e-05,0.0,0 STARLINK-4280,1 53178U 22083AY  24196.69957603  .00002289  00000-0  16187-3 0  9993,2 53178  53.2184 351.0493 0001318  90.8549 269.2594 15.08841551110313,6917.876,95.437,540.652,538.829,0.0
53178.0,STARLINK-4280,PAYLOAD,2024-07-15 03:55:04,15.08867451,0.0001796,53.2187,348.9668,79.6053,280.5142,0.00041105,6.265e-05,0.0,0 STARLINK-4280,1 53178U 22083AY  24197.16324488  .00006265  00000-0  41105-3 0  9991,2 53178  53.2187 348.9668 0001796  79.6053 280.5142 15.08867451111010,6917.796,95.436,540.904,538.419,0.0
53178.0,STARLINK-4280,PAYLOAD,2024-07-15 13:27:24,15.08835099,0.0001052,53.2185,347.1834,68.2978,291.8126,0.00024914,3.679e-05,0.0,0 STARLINK-4280,1 53178U 22083AY  24197.56070206  .00003679  00000-0  24914-3 0  9996,2 53178  53.2185 347.1834 0001052  68.2978 291.8126 15.08835099111075,6917.895,95.438,540.488,539.033,0.0
